{
  "type": "FeatureCollection",
  "name": "Dishaa Campus OSM Export",
  "crs": {
    "type": "name",
    "properties": {
      "name": "urn:ogc:def:crs:OGC:1.3:CRS84"
    }
  },
  "features": [
    {
      "type": "Feature",
      "id": "node/12076551612",
      "geometry": {
        "type": "Point",
        "coordinates": [
          79.0024549,
          21.1241627
        ]
      },
      "properties": {
        "osm_id": "12076551612",
        "osm_type": "node",
        "amenity": "restaurant",
        "name": "Canteen 1"
      }
    },
    {
      "type": "Feature",
      "id": "node/12076551613",
      "geometry": {
        "type": "Point",
        "coordinates": [
          79.00234,
          21.1243246
        ]
      },
      "properties": {
        "osm_id": "12076551613",
        "osm_type": "node",
        "name": "Xerox Center",
        "shop": "books"
      }
    },
    {
      "type": "Feature",
      "id": "node/12076973483",
      "geometry": {
        "type": "Point",
        "coordinates": [
          79.0025779,
          21.1253132
        ]
      },
      "properties": {
        "osm_id": "12076973483",
        "osm_type": "node",
        "name": "Students Section",
        "office": "student"
      }
    },
    {
      "type": "Feature",
      "id": "node/12077080298",
      "geometry": {
        "type": "Point",
        "coordinates": [
          79.002829,
          21.1254801
        ]
      },
      "properties": {
        "osm_id": "12077080298",
        "osm_type": "node",
        "name": "Account Section",
        "office": "accountant"
      }
    },
    {
      "type": "Feature",
      "id": "node/12077238611",
      "geometry": {
        "type": "Point",
        "coordinates": [
          79.0035937,
          21.1253252
        ]
      },
      "properties": {
        "osm_id": "12077238611",
        "osm_type": "node",
        "amenity": "restaurant",
        "name": "Sandwich Cafe"
      }
    },
    {
      "type": "Feature",
      "id": "node/12077238612",
      "geometry": {
        "type": "Point",
        "coordinates": [
          79.0033923,
          21.1240303
        ]
      },
      "properties": {
        "osm_id": "12077238612",
        "osm_type": "node",
        "amenity": "restaurant",
        "name": "Siddhi Cafe"
      }
    },
    {
      "type": "Feature",
      "id": "node/12077238613",
      "geometry": {
        "type": "Point",
        "coordinates": [
          79.0020355,
          21.1246503
        ]
      },
      "properties": {
        "osm_id": "12077238613",
        "osm_type": "node",
        "amenity": "cafe",
        "name": "NesCafe"
      }
    },
    {
      "type": "Feature",
      "id": "node/12077255035",
      "geometry": {
        "type": "Point",
        "coordinates": [
          79.0033981,
          21.1233434
        ]
      },
      "properties": {
        "osm_id": "12077255035",
        "osm_type": "node",
        "leisure": "horse_riding",
        "name": "Horses"
      }
    },
    {
      "type": "Feature",
      "id": "node/12083790013",
      "geometry": {
        "type": "Point",
        "coordinates": [
          79.0030494,
          21.125034
        ]
      },
      "properties": {
        "osm_id": "12083790013",
        "osm_type": "node",
        "amenity": "restaurant",
        "name": "Chaap Centre"
      }
    },
    {
      "type": "Feature",
      "id": "node/12083790014",
      "geometry": {
        "type": "Point",
        "coordinates": [
          79.0031121,
          21.1246074
        ]
      },
      "properties": {
        "osm_id": "12083790014",
        "osm_type": "node",
        "barrier": "gate"
      }
    },
    {
      "type": "Feature",
      "id": "way/28464386",
      "geometry": {
        "type": "LineString",
        "coordinates": [
          [
            79.0027358,
            21.1256575
          ],
          [
            79.0050769,
            21.1271814
          ],
          [
            79.0052382,
            21.127338
          ],
          [
            79.0054965,
            21.1276593
          ],
          [
            79.0055525,
            21.1277343
          ]
        ]
      },
      "properties": {
        "osm_id": "28464386",
        "osm_type": "way",
        "highway": "residential"
      }
    },
    {
      "type": "Feature",
      "id": "way/372146302",
      "geometry": {
        "type": "LineString",
        "coordinates": [
          [
            79.0015361,
            21.1248716
          ],
          [
            79.0011533,
            21.1253513
          ],
          [
            79.000982,
            21.1255819
          ]
        ]
      },
      "properties": {
        "osm_id": "372146302",
        "osm_type": "way",
        "highway": "residential"
      }
    },
    {
      "type": "Feature",
      "id": "way/848874321",
      "geometry": {
        "type": "LineString",
        "coordinates": [
          [
            79.0052897,
            21.1236068
          ],
          [
            79.0043324,
            21.1235911
          ],
          [
            79.0039542,
            21.1234375
          ],
          [
            79.0036672,
            21.1233209
          ],
          [
            79.0025701,
            21.123063
          ],
          [
            79.0024358,
            21.1232453
          ],
          [
            79.0020351,
            21.123786
          ],
          [
            79.0015078,
            21.1244746
          ],
          [
            79.0013871,
            21.1246694
          ],
          [
            79.0030589,
            21.1257526
          ],
          [
            79.003508,
            21.1260401
          ],
          [
            79.0035514,
            21.1259674
          ],
          [
            79.0052897,
            21.1236068
          ]
        ]
      },
      "properties": {
        "osm_id": "848874321",
        "osm_type": "way",
        "boundary": "administrative",
        "college": "GHRCEM"
      }
    },
    {
      "type": "Feature",
      "id": "way/848874322",
      "geometry": {
        "type": "Polygon",
        "coordinates": [
          [
            [
              79.0012425,
              21.1286851
            ],
            [
              79.0019077,
              21.1287201
            ],
            [
              79.0046275,
              21.1291104
            ],
            [
              79.0048259,
              21.1279295
            ],
            [
              79.005357,
              21.1276543
            ],
            [
              79.0051317,
              21.127294
            ],
            [
              79.0026158,
              21.1256778
            ],
            [
              79.0012318,
              21.1268837
            ],
            [
              79.0009528,
              21.1267936
            ],
            [
              79.00069,
              21.1268987
            ],
            [
              79.0004164,
              21.1275893
            ],
            [
              79.0005451,
              21.1279295
            ],
            [
              79.0010816,
              21.12851
            ],
            [
              79.0011513,
              21.1286951
            ],
            [
              79.0012425,
              21.1286851
            ]
          ]
        ]
      },
      "properties": {
        "osm_id": "848874322",
        "osm_type": "way",
        "landuse": "industrial"
      }
    },
    {
      "type": "Feature",
      "id": "way/875096098",
      "geometry": {
        "type": "LineString",
        "coordinates": [
          [
            79.0016665,
            21.1258892
          ],
          [
            79.0021805,
            21.1252724
          ]
        ]
      },
      "properties": {
        "osm_id": "875096098",
        "osm_type": "way",
        "highway": "residential",
        "source": "maxar"
      }
    },
    {
      "type": "Feature",
      "id": "way/875096099",
      "geometry": {
        "type": "LineString",
        "coordinates": [
          [
            79.0011652,
            21.1257635
          ],
          [
            79.0013579,
            21.1255702
          ],
          [
            79.0014571,
            21.1254651
          ],
          [
            79.0015563,
            21.1253575
          ],
          [
            79.0015563,
            21.1253497
          ],
          [
            79.0015537,
            21.1253422
          ],
          [
            79.0014548,
            21.1252915
          ]
        ]
      },
      "properties": {
        "osm_id": "875096099",
        "osm_type": "way",
        "highway": "residential",
        "source": "maxar"
      }
    },
    {
      "type": "Feature",
      "id": "way/875096100",
      "geometry": {
        "type": "LineString",
        "coordinates": [
          [
            79.0010615,
            21.1256765
          ],
          [
            79.0011652,
            21.1257635
          ],
          [
            79.001327,
            21.1258992
          ],
          [
            79.0013726,
            21.125948
          ],
          [
            79.0014088,
            21.126013
          ],
          [
            79.0014866,
            21.1261044
          ],
          [
            79.0015604,
            21.1261744
          ],
          [
            79.0016623,
            21.126262
          ],
          [
            79.0017615,
            21.1263358
          ]
        ]
      },
      "properties": {
        "osm_id": "875096100",
        "osm_type": "way",
        "highway": "residential",
        "source": "maxar"
      }
    },
    {
      "type": "Feature",
      "id": "way/875096104",
      "geometry": {
        "type": "LineString",
        "coordinates": [
          [
            79.0017025,
            21.1249808
          ],
          [
            79.0014548,
            21.1252915
          ],
          [
            79.0014055,
            21.1253162
          ],
          [
            79.0013632,
            21.1253363
          ],
          [
            79.0013404,
            21.1253425
          ],
          [
            79.0013237,
            21.1253532
          ],
          [
            79.0010615,
            21.1256765
          ],
          [
            79.0010061,
            21.1257425
          ],
          [
            79.0009998,
            21.1257741
          ],
          [
            79.0010011,
            21.1258004
          ],
          [
            79.0010132,
            21.1258254
          ],
          [
            79.0011714,
            21.1259592
          ],
          [
            79.0011806,
            21.1259755
          ],
          [
            79.0011825,
            21.125993
          ],
          [
            79.0010963,
            21.1260456
          ],
          [
            79.0010856,
            21.1260618
          ],
          [
            79.0010856,
            21.1260806
          ],
          [
            79.0010934,
            21.1261228
          ],
          [
            79.0011151,
            21.1262407
          ],
          [
            79.0011144,
            21.1262595
          ],
          [
            79.0011077,
            21.1262764
          ],
          [
            79.0010293,
            21.1264396
          ],
          [
            79.0009815,
            21.1265651
          ],
          [
            79.0009488,
            21.1266677
          ],
          [
            79.0009372,
            21.1267492
          ]
        ]
      },
      "properties": {
        "osm_id": "875096104",
        "osm_type": "way",
        "highway": "residential",
        "source": "maxar"
      }
    },
    {
      "type": "Feature",
      "id": "way/875096107",
      "geometry": {
        "type": "LineString",
        "coordinates": [
          [
            79.003508,
            21.1260401
          ],
          [
            79.0035514,
            21.1259674
          ],
          [
            79.0046543,
            21.1243993
          ],
          [
            79.0046623,
            21.1243392
          ],
          [
            79.0046489,
            21.1242892
          ],
          [
            79.0046167,
            21.1242542
          ],
          [
            79.0040097,
            21.1239042
          ]
        ]
      },
      "properties": {
        "osm_id": "875096107",
        "osm_type": "way",
        "access": "private",
        "highway": "footway",
        "source": "maxar"
      }
    },
    {
      "type": "Feature",
      "id": "way/1227341953",
      "geometry": {
        "type": "LineString",
        "coordinates": [
          [
            79.0048823,
            21.1266886
          ],
          [
            79.0046065,
            21.1265236
          ],
          [
            79.0053304,
            21.1254923
          ],
          [
            79.0060573,
            21.1244568
          ],
          [
            79.0063038,
            21.1245869
          ],
          [
            79.0065719,
            21.1247835
          ]
        ]
      },
      "properties": {
        "osm_id": "1227341953",
        "osm_type": "way",
        "access": "private",
        "highway": "service"
      }
    },
    {
      "type": "Feature",
      "id": "way/1227341954",
      "geometry": {
        "type": "LineString",
        "coordinates": [
          [
            79.0053304,
            21.1254923
          ],
          [
            79.0055437,
            21.125618
          ]
        ]
      },
      "properties": {
        "osm_id": "1227341954",
        "osm_type": "way",
        "access": "private",
        "highway": "service"
      }
    },
    {
      "type": "Feature",
      "id": "way/1304035596",
      "geometry": {
        "type": "LineString",
        "coordinates": [
          [
            79.0029547,
            21.1235823
          ],
          [
            79.0024358,
            21.1232453
          ]
        ]
      },
      "properties": {
        "osm_id": "1304035596",
        "osm_type": "way",
        "footway": "sidewalk",
        "highway": "footway"
      }
    },
    {
      "type": "Feature",
      "id": "way/1304035597",
      "geometry": {
        "type": "LineString",
        "coordinates": [
          [
            79.0025335,
            21.1241781
          ],
          [
            79.0025925,
            21.1242191
          ],
          [
            79.0028807,
            21.1244031
          ],
          [
            79.003095,
            21.1245399
          ]
        ]
      },
      "properties": {
        "osm_id": "1304035597",
        "osm_type": "way",
        "bicycle": "no",
        "highway": "footway",
        "horse": "no"
      }
    },
    {
      "type": "Feature",
      "id": "way/1304037809",
      "geometry": {
        "type": "Polygon",
        "coordinates": [
          [
            [
              79.0021585,
              21.1250429
            ],
            [
              79.0023952,
              21.1247189
            ],
            [
              79.0034089,
              21.1253622
            ],
            [
              79.0032961,
              21.1255099
            ],
            [
              79.0031717,
              21.1256934
            ],
            [
              79.002829,
              21.1254801
            ],
            [
              79.0025779,
              21.1253132
            ],
            [
              79.0021585,
              21.1250429
            ]
          ]
        ]
      },
      "properties": {
        "osm_id": "1304037809",
        "osm_type": "way",
        "building": "office",
        "name": "Block A"
      }
    },
    {
      "type": "Feature",
      "id": "way/1304038255",
      "geometry": {
        "type": "Polygon",
        "coordinates": [
          [
            [
              79.0019736,
              21.1247561
            ],
            [
              79.0024725,
              21.1240675
            ],
            [
              79.0020351,
              21.123786
            ],
            [
              79.0015078,
              21.1244746
            ],
            [
              79.0015252,
              21.1244859
            ],
            [
              79.0015445,
              21.1244985
            ],
            [
              79.0016749,
              21.1245834
            ],
            [
              79.0017821,
              21.1246432
            ],
            [
              79.0018954,
              21.1247129
            ],
            [
              79.0019736,
              21.1247561
            ]
          ]
        ]
      },
      "properties": {
        "osm_id": "1304038255",
        "osm_type": "way",
        "building": "college",
        "name": "Block B"
      }
    },
    {
      "type": "Feature",
      "id": "way/1304039182",
      "geometry": {
        "type": "Polygon",
        "coordinates": [
          [
            [
              79.0030323,
              21.1244124
            ],
            [
              79.0030261,
              21.1244321
            ],
            [
              79.0029029,
              21.1243595
            ],
            [
              79.0028379,
              21.1243212
            ],
            [
              79.0027823,
              21.1242837
            ],
            [
              79.0027152,
              21.1242488
            ],
            [
              79.0027497,
              21.1241867
            ],
            [
              79.003004,
              21.1238321
            ],
            [
              79.0030452,
              21.1237733
            ],
            [
              79.0031258,
              21.1238193
            ],
            [
              79.0031754,
              21.1238503
            ],
            [
              79.0032127,
              21.1238808
            ],
            [
              79.0032564,
              21.1239139
            ],
            [
              79.0033304,
              21.1239586
            ],
            [
              79.0033568,
              21.1239847
            ],
            [
              79.0030323,
              21.1244124
            ]
          ]
        ]
      },
      "properties": {
        "osm_id": "1304039182",
        "osm_type": "way",
        "building": "college",
        "name": "Block C"
      }
    },
    {
      "type": "Feature",
      "id": "way/1304093559",
      "geometry": {
        "type": "Polygon",
        "coordinates": [
          [
            [
              79.0025656,
              21.1240219
            ],
            [
              79.0028834,
              21.1235808
            ],
            [
              79.0024312,
              21.1232839
            ],
            [
              79.0020973,
              21.1237316
            ],
            [
              79.0025656,
              21.1240219
            ]
          ]
        ]
      },
      "properties": {
        "osm_id": "1304093559",
        "osm_type": "way",
        "building": "yes",
        "name": "Girls Hostel",
        "tourism": "hostel"
      }
    },
    {
      "type": "Feature",
      "id": "way/1304093560",
      "geometry": {
        "type": "Polygon",
        "coordinates": [
          [
            [
              79.0049153,
              21.1238071
            ],
            [
              79.0045931,
              21.1236249
            ],
            [
              79.0045146,
              21.1237261
            ],
            [
              79.0042892,
              21.1236093
            ],
            [
              79.0040772,
              21.1239083
            ],
            [
              79.0042496,
              21.1240103
            ],
            [
              79.0044862,
              21.124159
            ],
            [
              79.0046004,
              21.1242252
            ],
            [
              79.0046515,
              21.1241746
            ],
            [
              79.0049153,
              21.1238071
            ]
          ]
        ]
      },
      "properties": {
        "osm_id": "1304093560",
        "osm_type": "way",
        "building": "yes",
        "name": "Boys Hostel",
        "tourism": "hostel"
      }
    },
    {
      "type": "Feature",
      "id": "way/1304094840",
      "geometry": {
        "type": "LineString",
        "coordinates": [
          [
            79.0032104,
            21.1257308
          ],
          [
            79.003518,
            21.1252779
          ],
          [
            79.0035801,
            21.1253181
          ]
        ]
      },
      "properties": {
        "osm_id": "1304094840",
        "osm_type": "way",
        "footway": "sidewalk",
        "highway": "footway"
      }
    },
    {
      "type": "Feature",
      "id": "way/1304094841",
      "geometry": {
        "type": "LineString",
        "coordinates": [
          [
            79.0034185,
            21.1258875
          ],
          [
            79.0035273,
            21.1257312
          ],
          [
            79.0037735,
            21.1253774
          ]
        ]
      },
      "properties": {
        "osm_id": "1304094841",
        "osm_type": "way",
        "footway": "sidewalk",
        "highway": "footway"
      }
    },
    {
      "type": "Feature",
      "id": "way/1304102148",
      "geometry": {
        "type": "LineString",
        "coordinates": [
          [
            79.0006174,
            21.1242784
          ],
          [
            79.0007858,
            21.1243872
          ],
          [
            79.0015361,
            21.1248716
          ],
          [
            79.0017025,
            21.1249808
          ],
          [
            79.0018502,
            21.1250631
          ],
          [
            79.0021805,
            21.1252724
          ],
          [
            79.0027358,
            21.1256575
          ]
        ]
      },
      "properties": {
        "osm_id": "1304102148",
        "osm_type": "way",
        "highway": "residential"
      }
    },
    {
      "type": "Feature",
      "id": "way/1304123441",
      "geometry": {
        "type": "Polygon",
        "coordinates": [
          [
            [
              79.0028427,
              21.1234555
            ],
            [
              79.0030528,
              21.1235861
            ],
            [
              79.0032303,
              21.1233531
            ],
            [
              79.0030178,
              21.1232327
            ],
            [
              79.0028641,
              21.1234295
            ],
            [
              79.0028427,
              21.1234555
            ]
          ]
        ]
      },
      "properties": {
        "osm_id": "1304123441",
        "osm_type": "way",
        "landuse": "recreation_ground",
        "name": "Futsal"
      }
    },
    {
      "type": "Feature",
      "id": "way/1304123442",
      "geometry": {
        "type": "Polygon",
        "coordinates": [
          [
            [
              79.0032041,
              21.1237685
            ],
            [
              79.0033167,
              21.1236141
            ],
            [
              79.0035675,
              21.1237708
            ],
            [
              79.0034525,
              21.1239161
            ],
            [
              79.0032041,
              21.1237685
            ]
          ]
        ]
      },
      "properties": {
        "osm_id": "1304123442",
        "osm_type": "way",
        "landuse": "recreation_ground",
        "name": "Basketball"
      }
    },
    {
      "type": "Feature",
      "id": "way/1304123443",
      "geometry": {
        "type": "Polygon",
        "coordinates": [
          [
            [
              79.0029517,
              21.1248302
            ],
            [
              79.0034194,
              21.1251416
            ],
            [
              79.0037735,
              21.1253774
            ],
            [
              79.0038426,
              21.125422
            ],
            [
              79.0046442,
              21.124301
            ],
            [
              79.003999,
              21.1239213
            ],
            [
              79.0042427,
              21.1235817
            ],
            [
              79.0039586,
              21.1234622
            ],
            [
              79.0036673,
              21.1238514
            ],
            [
              79.0034697,
              21.1241107
            ],
            [
              79.0031121,
              21.1246074
            ],
            [
              79.0029517,
              21.1248302
            ]
          ]
        ]
      },
      "properties": {
        "osm_id": "1304123443",
        "osm_type": "way",
        "landuse": "recreation_ground",
        "name": "Ground"
      }
    },
    {
      "type": "Feature",
      "id": "way/1304123444",
      "geometry": {
        "type": "Polygon",
        "coordinates": [
          [
            [
              79.003508,
              21.1260401
            ],
            [
              79.0052897,
              21.1236068
            ],
            [
              79.0043324,
              21.1235911
            ],
            [
              79.0039542,
              21.1234375
            ],
            [
              79.0036672,
              21.1233209
            ],
            [
              79.0025701,
              21.123063
            ],
            [
              79.0015078,
              21.1244746
            ],
            [
              79.0013871,
              21.1246694
            ],
            [
              79.0030589,
              21.1257526
            ],
            [
              79.003508,
              21.1260401
            ]
          ]
        ]
      },
      "properties": {
        "osm_id": "1304123444",
        "osm_type": "way",
        "landuse": "education",
        "name": "G H R C E M"
      }
    },
    {
      "type": "Feature",
      "id": "way/1304127270",
      "geometry": {
        "type": "Polygon",
        "coordinates": [
          [
            [
              79.0033152,
              21.1256018
            ],
            [
              79.003495,
              21.125718
            ],
            [
              79.0035722,
              21.1256152
            ],
            [
              79.0033847,
              21.1254981
            ],
            [
              79.0033152,
              21.1256018
            ]
          ]
        ]
      },
      "properties": {
        "osm_id": "1304127270",
        "osm_type": "way",
        "amenity": "place_of_worship",
        "building": "yes",
        "religion": "hindu"
      }
    },
    {
      "type": "Feature",
      "id": "way/1304127271",
      "geometry": {
        "type": "Polygon",
        "coordinates": [
          [
            [
              79.0032104,
              21.1257308
            ],
            [
              79.0033102,
              21.1256115
            ],
            [
              79.0035031,
              21.1257291
            ],
            [
              79.0034086,
              21.125862
            ],
            [
              79.0032104,
              21.1257308
            ]
          ]
        ]
      },
      "properties": {
        "osm_id": "1304127271",
        "osm_type": "way",
        "leisure": "park",
        "name": "Sitting Area"
      }
    },
    {
      "type": "Feature",
      "id": "way/1304127272",
      "geometry": {
        "type": "LineString",
        "coordinates": [
          [
            79.0031315,
            21.1245804
          ],
          [
            79.0039542,
            21.1234375
          ]
        ]
      },
      "properties": {
        "osm_id": "1304127272",
        "osm_type": "way",
        "barrier": "wall"
      }
    },
    {
      "type": "Feature",
      "id": "way/1304127273",
      "geometry": {
        "type": "LineString",
        "coordinates": [
          [
            79.0037735,
            21.1253774
          ],
          [
            79.0034194,
            21.1251416
          ],
          [
            79.0029517,
            21.1248302
          ],
          [
            79.0029762,
            21.1247962
          ],
          [
            79.0030936,
            21.1246331
          ]
        ]
      },
      "properties": {
        "osm_id": "1304127273",
        "osm_type": "way",
        "barrier": "wall"
      }
    },
    {
      "type": "Feature",
      "id": "way/1304127923",
      "geometry": {
        "type": "LineString",
        "coordinates": [
          [
            79.0030518,
            21.123649
          ],
          [
            79.0032794,
            21.1233488
          ],
          [
            79.0033693,
            21.123395
          ]
        ]
      },
      "properties": {
        "osm_id": "1304127923",
        "osm_type": "way",
        "highway": "path",
        "informal": "yes"
      }
    },
    {
      "type": "Feature",
      "id": "way/1304253541",
      "geometry": {
        "type": "LineString",
        "coordinates": [
          [
            79.0030518,
            21.123649
          ],
          [
            79.0030112,
            21.1236208
          ],
          [
            79.0029908,
            21.123604
          ],
          [
            79.0029547,
            21.1235823
          ]
        ]
      },
      "properties": {
        "osm_id": "1304253541",
        "osm_type": "way",
        "footway": "sidewalk",
        "highway": "footway",
        "source": "maxar"
      }
    },
    {
      "type": "Feature",
      "id": "way/1304254336",
      "geometry": {
        "type": "LineString",
        "coordinates": [
          [
            79.0013871,
            21.1246694
          ],
          [
            79.0015078,
            21.1244746
          ],
          [
            79.0020351,
            21.123786
          ],
          [
            79.0025701,
            21.123063
          ],
          [
            79.0036672,
            21.1233209
          ],
          [
            79.0043324,
            21.1235911
          ],
          [
            79.0052897,
            21.1236068
          ],
          [
            79.0035514,
            21.1259674
          ],
          [
            79.003508,
            21.1260401
          ],
          [
            79.0030589,
            21.1257526
          ],
          [
            79.0013871,
            21.1246694
          ]
        ]
      },
      "properties": {
        "osm_id": "1304254336",
        "osm_type": "way",
        "barrier": "wall"
      }
    },
    {
      "type": "Feature",
      "id": "way/1304254969",
      "geometry": {
        "type": "Polygon",
        "coordinates": [
          [
            [
              79.0020441,
              21.1248091
            ],
            [
              79.0015252,
              21.1244859
            ],
            [
              79.0014126,
              21.1246572
            ],
            [
              79.0019023,
              21.1249822
            ],
            [
              79.0020441,
              21.1248091
            ]
          ]
        ]
      },
      "properties": {
        "osm_id": "1304254969",
        "osm_type": "way",
        "leisure": "park"
      }
    },
    {
      "type": "Feature",
      "id": "way/1304254977",
      "geometry": {
        "type": "Polygon",
        "coordinates": [
          [
            [
              79.0028433,
              21.1247575
            ],
            [
              79.0024863,
              21.1245323
            ],
            [
              79.0026081,
              21.1243696
            ],
            [
              79.0028165,
              21.1244964
            ],
            [
              79.0029673,
              21.1245882
            ],
            [
              79.0028433,
              21.1247575
            ]
          ]
        ]
      },
      "properties": {
        "osm_id": "1304254977",
        "osm_type": "way",
        "building": "yes",
        "name": "Workshop",
        "shop": "trade"
      }
    },
    {
      "type": "Feature",
      "id": "way/1304254978",
      "geometry": {
        "type": "Polygon",
        "coordinates": [
          [
            [
              79.0034435,
              21.1258703
            ],
            [
              79.0035119,
              21.1259141
            ],
            [
              79.0036011,
              21.1257751
            ],
            [
              79.0035273,
              21.1257312
            ],
            [
              79.0034435,
              21.1258703
            ]
          ]
        ]
      },
      "properties": {
        "osm_id": "1304254978",
        "osm_type": "way",
        "building": "yes",
        "military": "office"
      }
    },
    {
      "type": "Feature",
      "id": "way/1304285835",
      "geometry": {
        "type": "LineString",
        "coordinates": [
          [
            79.0025701,
            21.123063
          ],
          [
            79.0015078,
            21.1244746
          ],
          [
            79.0013871,
            21.1246694
          ]
        ]
      },
      "properties": {
        "osm_id": "1304285835",
        "osm_type": "way",
        "barrier": "city_wall"
      }
    },
    {
      "type": "Feature",
      "id": "way/1304285836",
      "geometry": {
        "type": "LineString",
        "coordinates": [
          [
            79.003508,
            21.1260401
          ],
          [
            79.0052897,
            21.1236068
          ],
          [
            79.0043324,
            21.1235911
          ],
          [
            79.0039542,
            21.1234375
          ],
          [
            79.0036672,
            21.1233209
          ],
          [
            79.0025701,
            21.123063
          ],
          [
            79.0024358,
            21.1232453
          ],
          [
            79.0020351,
            21.123786
          ],
          [
            79.0015078,
            21.1244746
          ],
          [
            79.0013871,
            21.1246694
          ],
          [
            79.003508,
            21.1260401
          ]
        ]
      },
      "properties": {
        "osm_id": "1304285836",
        "osm_type": "way",
        "barrier": "city_wall"
      }
    },
    {
      "type": "Feature",
      "id": "way/1304705715",
      "geometry": {
        "type": "Polygon",
        "coordinates": [
          [
            [
              79.0026873,
              21.1242428
            ],
            [
              79.0030255,
              21.1237762
            ],
            [
              79.0029072,
              21.1236986
            ],
            [
              79.0025708,
              21.1241634
            ],
            [
              79.0026873,
              21.1242428
            ]
          ]
        ]
      },
      "properties": {
        "osm_id": "1304705715",
        "osm_type": "way",
        "amenity": "motorcycle_parking",
        "name": "Students Parking"
      }
    },
    {
      "type": "Feature",
      "id": "way/1304705716",
      "geometry": {
        "type": "Polygon",
        "coordinates": [
          [
            [
              79.0023562,
              21.1244451
            ],
            [
              79.0024697,
              21.1245194
            ],
            [
              79.0026519,
              21.1242787
            ],
            [
              79.002539,
              21.1242038
            ],
            [
              79.0023562,
              21.1244451
            ]
          ]
        ]
      },
      "properties": {
        "osm_id": "1304705716",
        "osm_type": "way",
        "amenity": "motorcycle_parking",
        "name": "Staff Parking"
      }
    },
    {
      "type": "Feature",
      "id": "way/1304706773",
      "geometry": {
        "type": "LineString",
        "coordinates": [
          [
            79.0035053,
            21.123969
          ],
          [
            79.0033205,
            21.1238502
          ],
          [
            79.0029388,
            21.1236049
          ]
        ]
      },
      "properties": {
        "osm_id": "1304706773",
        "osm_type": "way",
        "footway": "sidewalk",
        "highway": "footway"
      }
    },
    {
      "type": "Feature",
      "id": "way/1304831316",
      "geometry": {
        "type": "LineString",
        "coordinates": [
          [
            79.0013871,
            21.1246694
          ],
          [
            79.0015078,
            21.1244746
          ],
          [
            79.0024358,
            21.1232453
          ],
          [
            79.0025701,
            21.123063
          ],
          [
            79.0036672,
            21.1233209
          ],
          [
            79.0039542,
            21.1234375
          ],
          [
            79.0043324,
            21.1235911
          ],
          [
            79.0052897,
            21.1236068
          ],
          [
            79.003508,
            21.1260401
          ],
          [
            79.0013871,
            21.1246694
          ]
        ]
      },
      "properties": {
        "osm_id": "1304831316",
        "osm_type": "way",
        "name": "G H R C E M",
        "office": "educational_institution"
      }
    },
    {
      "type": "Feature",
      "id": "way/1314688114",
      "geometry": {
        "type": "Polygon",
        "coordinates": [
          [
            [
              79.0028204,
              21.1234457
            ],
            [
              79.0025248,
              21.1232619
            ],
            [
              79.002648,
              21.1231163
            ],
            [
              79.0029463,
              21.1232797
            ],
            [
              79.0028204,
              21.1234457
            ]
          ]
        ]
      },
      "properties": {
        "osm_id": "1314688114",
        "osm_type": "way",
        "landuse": "recreation_ground",
        "name": "Handball"
      }
    },
    {
      "type": "Feature",
      "id": "way/1316756807",
      "geometry": {
        "type": "LineString",
        "coordinates": [
          [
            79.0029388,
            21.1236049
          ],
          [
            79.0029547,
            21.1235823
          ]
        ]
      },
      "properties": {
        "osm_id": "1316756807",
        "osm_type": "way",
        "highway": "footway"
      }
    },
    {
      "type": "Feature",
      "id": "way/1316759307",
      "geometry": {
        "type": "LineString",
        "coordinates": [
          [
            79.0035514,
            21.1259674
          ],
          [
            79.0034185,
            21.1258875
          ],
          [
            79.0032104,
            21.1257308
          ],
          [
            79.0019822,
            21.1249877
          ],
          [
            79.002318,
            21.1244946
          ],
          [
            79.0025335,
            21.1241781
          ],
          [
            79.0029388,
            21.1236049
          ]
        ]
      },
      "properties": {
        "osm_id": "1316759307",
        "osm_type": "way",
        "highway": "footway"
      }
    },
    {
      "type": "Feature",
      "id": "way/1316759308",
      "geometry": {
        "type": "LineString",
        "coordinates": [
          [
            79.002318,
            21.1244946
          ],
          [
            79.0028683,
            21.1248538
          ],
          [
            79.003518,
            21.1252779
          ]
        ]
      },
      "properties": {
        "osm_id": "1316759308",
        "osm_type": "way",
        "highway": "footway"
      }
    },
    {
      "type": "Feature",
      "id": "way/1316759309",
      "geometry": {
        "type": "LineString",
        "coordinates": [
          [
            79.0028683,
            21.1248538
          ],
          [
            79.003095,
            21.1245399
          ],
          [
            79.0035053,
            21.123969
          ]
        ]
      },
      "properties": {
        "osm_id": "1316759309",
        "osm_type": "way",
        "highway": "footway"
      }
    },
    {
      "type": "Feature",
      "id": "way/1331094798",
      "geometry": {
        "type": "Polygon",
        "coordinates": [
          [
            [
              79.0026283,
              21.1243667
            ],
            [
              79.002969,
              21.1245747
            ],
            [
              79.0030588,
              21.1244514
            ],
            [
              79.0030261,
              21.1244321
            ],
            [
              79.0029029,
              21.1243595
            ],
            [
              79.0028379,
              21.1243212
            ],
            [
              79.0027152,
              21.1242488
            ],
            [
              79.0026283,
              21.1243667
            ]
          ]
        ]
      },
      "properties": {
        "osm_id": "1331094798",
        "osm_type": "way",
        "leisure": "garden",
        "name": "Green GYM"
      }
    },
    {
      "type": "Feature",
      "id": "way/1331094799",
      "geometry": {
        "type": "LineString",
        "coordinates": [
          [
            79.0028807,
            21.1244031
          ],
          [
            79.0028165,
            21.1244964
          ]
        ]
      },
      "properties": {
        "osm_id": "1331094799",
        "osm_type": "way",
        "footway": "sidewalk",
        "highway": "footway"
      }
    },
    {
      "type": "Feature",
      "id": "way/1331094800",
      "geometry": {
        "type": "Polygon",
        "coordinates": [
          [
            [
              79.0030694,
              21.1236628
            ],
            [
              79.0031997,
              21.1237375
            ],
            [
              79.0033792,
              21.1235025
            ],
            [
              79.0034149,
              21.123525
            ],
            [
              79.0033821,
              21.1235709
            ],
            [
              79.0036079,
              21.1237222
            ],
            [
              79.003717,
              21.1235862
            ],
            [
              79.0034959,
              21.1234566
            ],
            [
              79.0034535,
              21.123516
            ],
            [
              79.0033936,
              21.1234782
            ],
            [
              79.0033628,
              21.1234575
            ],
            [
              79.0032634,
              21.1233981
            ],
            [
              79.0030694,
              21.1236628
            ]
          ]
        ]
      },
      "properties": {
        "osm_id": "1331094800",
        "osm_type": "way",
        "building": "yes",
        "name": "Training Centre",
        "shop": "trade"
      }
    },
    {
      "type": "Feature",
      "id": "way/1331094801",
      "geometry": {
        "type": "LineString",
        "coordinates": [
          [
            79.0034194,
            21.1254931
          ],
          [
            79.0034864,
            21.1254045
          ],
          [
            79.0035832,
            21.1254653
          ],
          [
            79.0035199,
            21.1255608
          ],
          [
            79.0034194,
            21.1254931
          ]
        ]
      },
      "properties": {
        "osm_id": "1331094801",
        "osm_type": "way",
        "bus": "yes",
        "name": "Bus Area",
        "public_transport": "platform"
      }
    },
    {
      "type": "Feature",
      "id": "way/1537929854",
      "geometry": {
        "type": "Polygon",
        "coordinates": [
          [
            [
              79.0048794,
              21.1266218
            ],
            [
              79.0046768,
              21.126501
            ],
            [
              79.0053291,
              21.1255496
            ],
            [
              79.0055316,
              21.1256703
            ],
            [
              79.0048794,
              21.1266218
            ]
          ]
        ]
      },
      "properties": {
        "osm_id": "1537929854",
        "osm_type": "way",
        "building": "yes"
      }
    }
  ]
}